{
    "type": "FeatureCollection",
    "features": [
      {
        "type": "Feature",
        "properties": {},
        "geometry": {
          "type": "Polygon",
          "coordinates": [
            [
              [
                -7.415771484374999,
                37.2040815558985
              ],
              [
                -7.294921874999999,
                37.21283151445594
              ],
              [
                -7.218017578125001,
                37.22158045838649
              ],
              [
                -7.119140625,
                37.22158045838649
              ],
              [
                -7.00927734375,
                37.2040815558985
              ],
              [
                -6.921386718749999,
                37.16907157713011
              ],
              [
                -6.844482421875,
                37.142803443716836
              ],
              [
                -6.734619140625,
                37.09900294387622
              ],
              [
                -6.580810546874999,
                37.01132594307015
              ],
              [
                -6.470947265625,
                36.923547681089296
              ],
              [
                -6.383056640625,
                36.79169061907076
              ],
              [
                -6.416015625,
                36.74768773190056
              ],
              [
                -6.416015625,
                36.69485094156225
              ],
              [
                -6.35009765625,
                36.60670888641815
              ],
              [
                -6.2841796875,
                36.589068371399115
              ],
              [
                -6.30615234375,
                36.53612263184686
              ],
              [
                -6.26220703125,
                36.4477991295848
              ],
              [
                -6.163330078125,
                36.35052700542766
              ],
              [
                -6.064453125,
                36.24427318493909
              ],
              [
                -5.998535156249999,
                36.19995805932895
              ],
              [
                -5.921630859375,
                36.19995805932895
              ],
              [
                -5.833740234375,
                36.13787471840729
              ],
              [
                -5.723876953125,
                36.06686213257888
              ],
              [
                -5.5810546875,
                36.03133177633187
              ],
              [
                -5.515136718749999,
                36.05798104702501
              ],
              [
                -5.44921875,
                36.08462129606931
              ],
              [
                -5.372314453125,
                36.1733569352216
              ],
              [
                -5.295410156249999,
                36.2354121683998
              ],
              [
                -5.240478515625,
                36.33282808737919
              ],
              [
                -5.130615234375,
                36.38591277287654
              ],
              [
                -5.042724609375,
                36.43012234551579
              ],
              [
                -4.94384765625,
                36.474306755095235
              ],
              [
                -4.866943359375,
                36.48314061639213
              ],
              [
                -4.76806640625,
                36.48314061639213
              ],
              [
                -4.669189453125,
                36.48314061639213
              ],
              [
                -4.603271484375,
                36.50963615733049
              ],
              [
                -4.581298828125,
                36.57142382346275
              ],
              [
                -4.515380859375,
                36.615527631349224
              ],
              [
                -4.471435546874999,
                36.65079252503471
              ],
              [
                -4.37255859375,
                36.69485094156225
              ],
              [
                -4.21875,
                36.686041276581925
              ],
              [
                -4.119873046875,
                36.721273880045004
              ],
              [
                -3.9440917968749996,
                36.721273880045004
              ],
              [
                -3.812255859375,
                36.74768773190056
              ],
              [
                -3.7243652343749996,
                36.712467243386264
              ],
              [
                -3.6035156249999996,
                36.712467243386264
              ],
              [
                -3.53759765625,
                36.70365959719453
              ],
              [
                -3.4606933593749996,
                36.686041276581925
              ],
              [
                -3.3837890625,
                36.69485094156225
              ],
              [
                -3.306884765625,
                36.730079507078415
              ],
              [
                -3.2080078125,
                36.73888412439431
              ],
              [
                -3.09814453125,
                36.73888412439431
              ],
              [
                -3.01025390625,
                36.730079507078415
              ],
              [
                -2.900390625,
                36.721273880045004
              ],
              [
                -2.79052734375,
                36.70365959719453
              ],
              [
                -2.713623046875,
                36.69485094156225
              ],
              [
                -2.6477050781249996,
                36.730079507078415
              ],
              [
                -2.61474609375,
                36.76529191711621
              ],
              [
                -2.559814453125,
                36.80928470205937
              ],
              [
                -2.48291015625,
                36.81808022778526
              ],
              [
                -2.39501953125,
                36.84446074079564
              ],
              [
                -2.3291015625,
                36.86204269508728
              ],
              [
                -2.274169921875,
                36.81808022778526
              ],
              [
                -2.230224609375,
                36.76529191711621
              ],
              [
                -2.164306640625,
                36.730079507078415
              ],
              [
                -2.109375,
                36.76529191711621
              ],
              [
                -2.054443359375,
                36.81808022778526
              ],
              [
                -1.99951171875,
                36.888408043138206
              ],
              [
                -1.9116210937499998,
                36.958671131530316
              ],
              [
                -1.86767578125,
                37.02886944696474
              ],
              [
                -1.845703125,
                37.10776507118514
              ],
              [
                -1.8017578124999998,
                37.21283151445594
              ],
              [
                -1.724853515625,
                37.29153547292737
              ],
              [
                -1.636962890625,
                37.37015718405753
              ],
              [
                -1.702880859375,
                37.431250501793585
              ],
              [
                -1.77978515625,
                37.45741810262938
              ],
              [
                -1.856689453125,
                37.46613860234406
              ],
              [
                -1.9226074218749998,
                37.51844023887861
              ],
              [
                -1.988525390625,
                37.63163475580643
              ],
              [
                -2.010498046875,
                37.70120736474139
              ],
              [
                -1.988525390625,
                37.779398571318765
              ],
              [
                -1.988525390625,
                37.88352498087131
              ],
              [
                -2.142333984375,
                37.88352498087131
              ],
              [
                -2.230224609375,
                37.92686760148135
              ],
              [
                -2.28515625,
                37.996162679728116
              ],
              [
                -2.340087890625,
                38.039438891821746
              ],
              [
                -2.43896484375,
                38.048091067457236
              ],
              [
                -2.537841796875,
                38.09998264736481
              ],
              [
                -2.471923828125,
                38.18638677411551
              ],
              [
                -2.4609375,
                38.25543637637947
              ],
              [
                -2.4609375,
                38.324420427006544
              ],
              [
                -2.493896484375,
                38.40194908237822
              ],
              [
                -2.548828125,
                38.41916639395372
              ],
              [
                -2.559814453125,
                38.487994609214795
              ],
              [
                -2.65869140625,
                38.51378825951165
              ],
              [
                -2.74658203125,
                38.53957267203905
              ],
              [
                -2.79052734375,
                38.496593518947584
              ],
              [
                -2.8894042968749996,
                38.46219172306828
              ],
              [
                -2.96630859375,
                38.47939467327645
              ],
              [
                -3.01025390625,
                38.42777351132902
              ],
              [
                -3.076171875,
                38.47079371120379
              ],
              [
                -3.153076171875,
                38.44498466889473
              ],
              [
                -3.2958984375,
                38.47079371120379
              ],
              [
                -3.3618164062499996,
                38.487994609214795
              ],
              [
                -3.40576171875,
                38.42777351132902
              ],
              [
                -3.515625,
                38.41916639395372
              ],
              [
                -3.5595703125,
                38.453588708941375
              ],
              [
                -3.614501953125,
                38.40194908237822
              ],
              [
                -3.7023925781249996,
                38.42777351132902
              ],
              [
                -3.812255859375,
                38.42777351132902
              ],
              [
                -3.856201171875,
                38.376115424036016
              ],
              [
                -3.9440917968749996,
                38.36750215395045
              ],
              [
                -4.141845703125,
                38.39333888832238
              ],
              [
                -4.2626953125,
                38.41055825094609
              ],
              [
                -4.32861328125,
                38.376115424036016
              ],
              [
                -4.4384765625,
                38.38472766885085
              ],
              [
                -4.482421875,
                38.44498466889473
              ],
              [
                -4.5263671875,
                38.487994609214795
              ],
              [
                -4.592285156249999,
                38.487994609214795
              ],
              [
                -4.658203125,
                38.522384090200845
              ],
              [
                -4.72412109375,
                38.57393751557591
              ],
              [
                -4.844970703125,
                38.61687046392973
              ],
              [
                -4.8779296875,
                38.659777730712534
              ],
              [
                -4.932861328124999,
                38.69408504756833
              ],
              [
                -4.998779296875,
                38.71980474264237
              ],
              [
                -5.064697265625,
                38.71980474264237
              ],
              [
                -5.1416015625,
                38.7283759182398
              ],
              [
                -5.240478515625,
                38.65119833229951
              ],
              [
                -5.3173828125,
                38.59970036588819
              ],
              [
                -5.4052734375,
                38.53957267203905
              ],
              [
                -5.537109374999999,
                38.453588708941375
              ],
              [
                -5.548095703125,
                38.35027253825765
              ],
              [
                -5.526123046875,
                38.25543637637947
              ],
              [
                -5.55908203125,
                38.16911413556086
              ],
              [
                -5.64697265625,
                38.12591462924154
              ],
              [
                -5.712890625,
                38.08268954483802
              ],
              [
                -5.756835937499999,
                38.1172716583054
              ],
              [
                -5.712890625,
                38.16911413556086
              ],
              [
                -5.767822265625,
                38.18638677411551
              ],
              [
                -5.877685546874999,
                38.151837403006766
              ],
              [
                -5.899658203125,
                38.07404145941957
              ],
              [
                -5.943603515625,
                38.004819966413194
              ],
              [
                -6.031494140625,
                37.98750437106374
              ],
              [
                -6.13037109375,
                37.98750437106374
              ],
              [
                -6.207275390625,
                37.94419750075404
              ],
              [
                -6.26220703125,
                38.004819966413194
              ],
              [
                -6.339111328124999,
                38.06539235133249
              ],
              [
                -6.405029296875,
                38.08268954483802
              ],
              [
                -6.459960937499999,
                38.039438891821746
              ],
              [
                -6.52587890625,
                38.03078569382294
              ],
              [
                -6.591796875,
                38.05674222065293
              ],
              [
                -6.646728515625,
                38.09998264736481
              ],
              [
                -6.723632812499999,
                38.09133660751176
              ],
              [
                -6.800537109375,
                38.14319750166766
              ],
              [
                -6.800537109375,
                38.1777509666256
              ],
              [
                -6.954345703125,
                38.20365531807149
              ],
              [
                -6.9873046875,
                38.09133660751176
              ],
              [
                -7.064208984374999,
                38.02213147353745
              ],
              [
                -7.119140625,
                38.013476231041935
              ],
              [
                -7.174072265624999,
                38.02213147353745
              ],
              [
                -7.250976562499999,
                37.97018468810549
              ],
              [
                -7.283935546874999,
                37.86618078529668
              ],
              [
                -7.404785156249999,
                37.779398571318765
              ],
              [
                -7.448730468749999,
                37.65773212628274
              ],
              [
                -7.525634765624999,
                37.56199695314352
              ],
              [
                -7.459716796875001,
                37.46613860234406
              ],
              [
                -7.437744140625,
                37.34395908944491
              ],
              [
                -7.415771484374999,
                37.2040815558985
              ]
            ]
          ]
        }
      }
    ]
  }